[
{
"CCSDS_OMM_VERS": "2.0",
"COMMENT": "GENERATED VIA SPACE-TRACK.ORG API",
"CREATION_DATE": "2025-03-19T14:56:26",
"ORIGINATOR": "18 SPCS",
"OBJECT_NAME": "GALILEO 7 (263)",
"OBJECT_ID": "2015-017A",
"CENTER_NAME": "EARTH",
"REF_FRAME": "TEME",
"TIME_SYSTEM": "UTC",
"MEAN_ELEMENT_THEORY": "SGP4",
"EPOCH": "2025-03-19T00:34:13.611360",
"MEAN_MOTION": "1.70475851",
"ECCENTRICITY": "0.00043220",
"INCLINATION": "56.9027",
"RA_OF_ASC_NODE": "353.9947",
"ARG_OF_PERICENTER": "295.1767",
"MEAN_ANOMALY": "64.8044",
"EPHEMERIS_TYPE": "0",
"CLASSIFICATION_TYPE": "U",
"NORAD_CAT_ID": "40544",
"ELEMENT_SET_NO": "999",
"REV_AT_EPOCH": "6210",
"BSTAR": "0.00000000000000",
"MEAN_MOTION_DOT": "-0.00000091",
"MEAN_MOTION_DDOT": "0.0000000000000",
"SEMIMAJOR_AXIS": "29600.106",
"PERIOD": "844.694",
"APOAPSIS": "23234.764",
"PERIAPSIS": "23209.178",
"OBJECT_TYPE": "PAYLOAD",
"RCS_SIZE": "LARGE",
"COUNTRY_CODE": "ESA",
"LAUNCH_DATE": "2015-03-27",
"SITE": "FRGUI",
"DECAY_DATE": null,
"FILE": "4674041",
"GP_ID": "283481824",
"TLE_LINE0": "0 GALILEO 7 (263)",
"TLE_LINE1": "1 40544U 15017A   25078.02376865 -.00000091  00000-0  00000+0 0  9990",
"TLE_LINE2": "2 40544  56.9027 353.9947 0004322 295.1767  64.8044  1.70475851 62109"
},
{
"CCSDS_OMM_VERS": "2.0",
"COMMENT": "GENERATED VIA SPACE-TRACK.ORG API",
"CREATION_DATE": "2025-03-19T06:36:35",
"ORIGINATOR": "18 SPCS",
"OBJECT_NAME": "GALILEO 29 (10C)",
"OBJECT_ID": "2024-079A",
"CENTER_NAME": "EARTH",
"REF_FRAME": "TEME",
"TIME_SYSTEM": "UTC",
"MEAN_ELEMENT_THEORY": "SGP4",
"EPOCH": "2025-03-18T22:15:44.994240",
"MEAN_MOTION": "1.70475167",
"ECCENTRICITY": "0.00031130",
"INCLINATION": "54.8420",
"RA_OF_ASC_NODE": "113.8155",
"ARG_OF_PERICENTER": "248.9957",
"MEAN_ANOMALY": "292.3538",
"EPHEMERIS_TYPE": "0",
"CLASSIFICATION_TYPE": "U",
"NORAD_CAT_ID": "59598",
"ELEMENT_SET_NO": "999",
"REV_AT_EPOCH": "554",
"BSTAR": "0.00000000000000",
"MEAN_MOTION_DOT": "0.00000032",
"MEAN_MOTION_DDOT": "0.0000000000000",
"SEMIMAJOR_AXIS": "29600.185",
"PERIOD": "844.698",
"APOAPSIS": "23231.265",
"PERIAPSIS": "23212.835",
"OBJECT_TYPE": "PAYLOAD",
"RCS_SIZE": "LARGE",
"COUNTRY_CODE": "ESA",
"LAUNCH_DATE": "2024-04-28",
"SITE": "AFETR",
"DECAY_DATE": null,
"FILE": "4673525",
"GP_ID": "283470538",
"TLE_LINE0": "0 GALILEO 29 (10C)",
"TLE_LINE1": "1 59598U 24079A   25077.92760410  .00000032  00000-0  00000+0 0  9992",
"TLE_LINE2": "2 59598  54.8420 113.8155 0003113 248.9957 292.3538  1.70475167  5541"
},
{
"CCSDS_OMM_VERS": "2.0",
"COMMENT": "GENERATED VIA SPACE-TRACK.ORG API",
"CREATION_DATE": "2025-03-19T17:43:14",
"ORIGINATOR": "18 SPCS",
"OBJECT_NAME": "GALILEO 17 (26D)",
"OBJECT_ID": "2016-069C",
"CENTER_NAME": "EARTH",
"REF_FRAME": "TEME",
"TIME_SYSTEM": "UTC",
"MEAN_ELEMENT_THEORY": "SGP4",
"EPOCH": "2025-03-18T18:41:17.866464",
"MEAN_MOTION": "1.70475107",
"ECCENTRICITY": "0.00055680",
"INCLINATION": "55.2249",
"RA_OF_ASC_NODE": "113.7036",
"ARG_OF_PERICENTER": "285.2085",
"MEAN_ANOMALY": "74.8035",
"EPHEMERIS_TYPE": "0",
"CLASSIFICATION_TYPE": "U",
"NORAD_CAT_ID": "41861",
"ELEMENT_SET_NO": "999",
"REV_AT_EPOCH": "5175",
"BSTAR": "0.00000000000000",
"MEAN_MOTION_DOT": "0.00000033",
"MEAN_MOTION_DDOT": "0.0000000000000",
"SEMIMAJOR_AXIS": "29600.192",
"PERIOD": "844.698",
"APOAPSIS": "23238.538",
"PERIAPSIS": "23205.576",
"OBJECT_TYPE": "PAYLOAD",
"RCS_SIZE": "LARGE",
"COUNTRY_CODE": "ESA",
"LAUNCH_DATE": "2016-11-17",
"SITE": "FRGUI",
"DECAY_DATE": null,
"FILE": "4674121",
"GP_ID": "283500145",
"TLE_LINE0": "0 GALILEO 17 (26D)",
"TLE_LINE1": "1 41861U 16069C   25077.77867901  .00000033  00000-0  00000-0 0  9994",
"TLE_LINE2": "2 41861  55.2249 113.7036 0005568 285.2085  74.8035  1.70475107 51751"
},
{
"CCSDS_OMM_VERS": "2.0",
"COMMENT": "GENERATED VIA SPACE-TRACK.ORG API",
"CREATION_DATE": "2025-03-19T17:43:14",
"ORIGINATOR": "18 SPCS",
"OBJECT_NAME": "GALILEO-FM3",
"OBJECT_ID": "2012-055A",
"CENTER_NAME": "EARTH",
"REF_FRAME": "TEME",
"TIME_SYSTEM": "UTC",
"MEAN_ELEMENT_THEORY": "SGP4",
"EPOCH": "2025-03-18T16:45:15.228288",
"MEAN_MOTION": "1.70473586",
"ECCENTRICITY": "0.00057000",
"INCLINATION": "55.5383",
"RA_OF_ASC_NODE": "114.0565",
"ARG_OF_PERICENTER": "277.9791",
"MEAN_ANOMALY": "82.0305",
"EPHEMERIS_TYPE": "0",
"CLASSIFICATION_TYPE": "U",
"NORAD_CAT_ID": "38857",
"ELEMENT_SET_NO": "999",
"REV_AT_EPOCH": "7724",
"BSTAR": "0.00000000000000",
"MEAN_MOTION_DOT": "0.00000033",
"MEAN_MOTION_DDOT": "0.0000000000000",
"SEMIMAJOR_AXIS": "29600.368",
"PERIOD": "844.706",
"APOAPSIS": "23239.105",
"PERIAPSIS": "23205.361",
"OBJECT_TYPE": "PAYLOAD",
"RCS_SIZE": "LARGE",
"COUNTRY_CODE": "ESA",
"LAUNCH_DATE": "2012-10-12",
"SITE": "FRGUI",
"DECAY_DATE": null,
"FILE": "4674121",
"GP_ID": "283497707",
"TLE_LINE0": "0 GALILEO-FM3",
"TLE_LINE1": "1 38857U 12055A   25077.69809292  .00000033  00000-0  00000-0 0  9996",
"TLE_LINE2": "2 38857  55.5383 114.0565 0005700 277.9791  82.0305  1.70473586 77247"
},
{
"CCSDS_OMM_VERS": "2.0",
"COMMENT": "GENERATED VIA SPACE-TRACK.ORG API",
"CREATION_DATE": "2025-03-19T02:27:03",
"ORIGINATOR": "18 SPCS",
"OBJECT_NAME": "GALILEO 15 (267)",
"OBJECT_ID": "2016-069A",
"CENTER_NAME": "EARTH",
"REF_FRAME": "TEME",
"TIME_SYSTEM": "UTC",
"MEAN_ELEMENT_THEORY": "SGP4",
"EPOCH": "2025-03-18T13:21:29.346624",
"MEAN_MOTION": "1.70474610",
"ECCENTRICITY": "0.00053850",
"INCLINATION": "55.2251",
"RA_OF_ASC_NODE": "113.7065",
"ARG_OF_PERICENTER": "300.0955",
"MEAN_ANOMALY": "59.9256",
"EPHEMERIS_TYPE": "0",
"CLASSIFICATION_TYPE": "U",
"NORAD_CAT_ID": "41859",
"ELEMENT_SET_NO": "999",
"REV_AT_EPOCH": "5163",
"BSTAR": "0.00000000000000",
"MEAN_MOTION_DOT": "0.00000032",
"MEAN_MOTION_DDOT": "0.0000000000000",
"SEMIMAJOR_AXIS": "29600.249",
"PERIOD": "844.701",
"APOAPSIS": "23238.054",
"PERIAPSIS": "23206.175",
"OBJECT_TYPE": "PAYLOAD",
"RCS_SIZE": "LARGE",
"COUNTRY_CODE": "ESA",
"LAUNCH_DATE": "2016-11-17",
"SITE": "FRGUI",
"DECAY_DATE": null,
"FILE": "4673449",
"GP_ID": "283454757",
"TLE_LINE0": "0 GALILEO 15 (267)",
"TLE_LINE1": "1 41859U 16069A   25077.55658966  .00000032  00000-0  00000-0 0  9995",
"TLE_LINE2": "2 41859  55.2251 113.7065 0005385 300.0955  59.9256  1.70474610 51636"
},
{
"CCSDS_OMM_VERS": "2.0",
"COMMENT": "GENERATED VIA SPACE-TRACK.ORG API",
"CREATION_DATE": "2025-03-19T02:27:03",
"ORIGINATOR": "18 SPCS",
"OBJECT_NAME": "GALILEO 22 (2C8)",
"OBJECT_ID": "2017-079D",
"CENTER_NAME": "EARTH",
"REF_FRAME": "TEME",
"TIME_SYSTEM": "UTC",
"MEAN_ELEMENT_THEORY": "SGP4",
"EPOCH": "2025-03-18T09:16:48.562752",
"MEAN_MOTION": "1.70474639",
"ECCENTRICITY": "0.00018590",
"INCLINATION": "55.2286",
"RA_OF_ASC_NODE": "234.0421",
"ARG_OF_PERICENTER": "293.6512",
"MEAN_ANOMALY": "66.2770",
"EPHEMERIS_TYPE": "0",
"CLASSIFICATION_TYPE": "U",
"NORAD_CAT_ID": "43058",
"ELEMENT_SET_NO": "999",
"REV_AT_EPOCH": "4524",
"BSTAR": "0.00000000000000",
"MEAN_MOTION_DOT": "0.00000027",
"MEAN_MOTION_DDOT": "0.0000000000000",
"SEMIMAJOR_AXIS": "29600.246",
"PERIOD": "844.700",
"APOAPSIS": "23227.614",
"PERIAPSIS": "23216.608",
"OBJECT_TYPE": "PAYLOAD",
"RCS_SIZE": "LARGE",
"COUNTRY_CODE": "ESA",
"LAUNCH_DATE": "2017-12-12",
"SITE": "FRGUI",
"DECAY_DATE": null,
"FILE": "4673449",
"GP_ID": "283454628",
"TLE_LINE0": "0 GALILEO 22 (2C8)",
"TLE_LINE1": "1 43058U 17079D   25077.38667318  .00000027  00000-0  00000-0 0  9996",
"TLE_LINE2": "2 43058  55.2286 234.0421 0001859 293.6512  66.2770  1.70474639 45241"
},
{
"CCSDS_OMM_VERS": "2.0",
"COMMENT": "GENERATED VIA SPACE-TRACK.ORG API",
"CREATION_DATE": "2025-03-19T02:27:03",
"ORIGINATOR": "18 SPCS",
"OBJECT_NAME": "GALILEO 18 (26E)",
"OBJECT_ID": "2016-069D",
"CENTER_NAME": "EARTH",
"REF_FRAME": "TEME",
"TIME_SYSTEM": "UTC",
"MEAN_ELEMENT_THEORY": "SGP4",
"EPOCH": "2025-03-18T08:06:11.074752",
"MEAN_MOTION": "1.70474940",
"ECCENTRICITY": "0.00045470",
"INCLINATION": "55.2235",
"RA_OF_ASC_NODE": "113.7088",
"ARG_OF_PERICENTER": "287.0191",
"MEAN_ANOMALY": "73.0064",
"EPHEMERIS_TYPE": "0",
"CLASSIFICATION_TYPE": "U",
"NORAD_CAT_ID": "41862",
"ELEMENT_SET_NO": "999",
"REV_AT_EPOCH": "5187",
"BSTAR": "0.00000000000000",
"MEAN_MOTION_DOT": "0.00000032",
"MEAN_MOTION_DDOT": "0.0000000000000",
"SEMIMAJOR_AXIS": "29600.211",
"PERIOD": "844.699",
"APOAPSIS": "23235.535",
"PERIAPSIS": "23208.617",
"OBJECT_TYPE": "PAYLOAD",
"RCS_SIZE": "LARGE",
"COUNTRY_CODE": "ESA",
"LAUNCH_DATE": "2016-11-17",
"SITE": "FRGUI",
"DECAY_DATE": null,
"FILE": "4673449",
"GP_ID": "283454259",
"TLE_LINE0": "0 GALILEO 18 (26E)",
"TLE_LINE1": "1 41862U 16069D   25077.33762818  .00000032  00000-0  00000-0 0  9997",
"TLE_LINE2": "2 41862  55.2235 113.7088 0004547 287.0191  73.0064  1.70474940 51878"
},
{
"CCSDS_OMM_VERS": "2.0",
"COMMENT": "GENERATED VIA SPACE-TRACK.ORG API",
"CREATION_DATE": "2025-03-18T19:01:07",
"ORIGINATOR": "18 SPCS",
"OBJECT_NAME": "GALILEO 19 (2C5)",
"OBJECT_ID": "2017-079A",
"CENTER_NAME": "EARTH",
"REF_FRAME": "TEME",
"TIME_SYSTEM": "UTC",
"MEAN_ELEMENT_THEORY": "SGP4",
"EPOCH": "2025-03-18T05:47:14.254944",
"MEAN_MOTION": "1.70474603",
"ECCENTRICITY": "0.00003290",
"INCLINATION": "55.2301",
"RA_OF_ASC_NODE": "234.0502",
"ARG_OF_PERICENTER": "26.4094",
"MEAN_ANOMALY": "333.5392",
"EPHEMERIS_TYPE": "0",
"CLASSIFICATION_TYPE": "U",
"NORAD_CAT_ID": "43055",
"ELEMENT_SET_NO": "999",
"REV_AT_EPOCH": "4521",
"BSTAR": "0.00000000000000",
"MEAN_MOTION_DOT": "0.00000026",
"MEAN_MOTION_DDOT": "0.0000000000000",
"SEMIMAJOR_AXIS": "29600.250",
"PERIOD": "844.701",
"APOAPSIS": "23223.089",
"PERIAPSIS": "23221.141",
"OBJECT_TYPE": "PAYLOAD",
"RCS_SIZE": "LARGE",
"COUNTRY_CODE": "ESA",
"LAUNCH_DATE": "2017-12-12",
"SITE": "FRGUI",
"DECAY_DATE": null,
"FILE": "4673118",
"GP_ID": "283418178",
"TLE_LINE0": "0 GALILEO 19 (2C5)",
"TLE_LINE1": "1 43055U 17079A   25077.24113721  .00000026  00000-0  00000-0 0  9991",
"TLE_LINE2": "2 43055  55.2301 234.0502 0000329  26.4094 333.5392  1.70474603 45212"
}
]
